{"id":"699","name":"Saturn ","centerId":"500@10","centerName":"Sun ","epoch":"2000-Jan-01 12:00:00.0000","elementTable":{"periapsis":1353682190782.635,"inclination":0.04335838361458921,"longitudeOfAscendingNode":1.9844334258635508,"argumentOfPeriapsis":5.861960454554918,"timeOfPeriapsis":2452735.7706333147,"meanMotion":6.713520473706527e-9,"meanAnomaly":5.59248098171196,"trueAnomaly":5.517653301286554,"apoapsis":1513190220396.905,"siderealOrbitPeriod":935900222.8097245,"semiMajorAxis":1433436205589.77,"semiMinorAxis":1431215795265.599,"semiLatusRectum":1428998824384.3474,"eccentricity":0.05563834267345058,"linearEccentricity":79754014807.131},"physicalDataTable":{"meanRadius":58232000,"mass":5.6834e+26,"siderealRotationRate":0.000163785,"siderealRotationPeriod":38362.39769929839,"gravParameter":37931206234,"obliquity":26.73},"vectorTable":{"position":[990589404921.6816,0,951992685434.4878],"velocity":[6677.647443770402,0,-7484.564233148975]}}
